{"type":"FeatureCollection","features":[{"type":"Feature","properties":{"name":"Brahmaputra"},"geometry":{"type":"LineString","coordinates":[[82.4,30.411],[82.723,30.365],[83.761,29.833],[84.067,29.613],[84.379,29.495],[84.707,29.296],[85.409,29.274],[87.66,29.152],[87.984,29.342],[88.631,29.351],[91.038,29.317],[92.095,29.253],[93.25,29.07],[93.607,29.109],[94.356,29.31],[94.82,29.542],[95.151,29.81],[95.373,29.596],[94.876,28.968],[95.044,28.511],[95.088,28.217],[95.396,28.003],[95.29,27.788],[94.832,27.464],[94.395,27.042],[93.752,26.732],[92.678,26.555],[92.322,26.464],[91.683,26.215],[91.25,26.183],[90.606,26.181],[90.334,26.135],[90.112,26.03],[89.925,25.874],[89.788,25.632],[89.613,24.948],[89.714,24.585],[89.744,23.859],[90.006,23.659],[90.226,23.418],[90.387,23.12],[90.508,22.78]]}},{"type":"Feature","properties":{"name":"Mekong"},"geometry":{"type":"LineString","coordinates":[[94.084,33.156],[94.448,33.163],[94.941,33.089],[95.84,32.632],[96.239,32.526],[96.941,31.966],[97.165,31.489],[97.257,31.096],[97.846,30.278],[98.285,29.667],[98.624,28.963],[99.028,27.516],[99.15,27.028],[99.173,26.026],[99.24,25.668],[99.391,25.345],[99.667,25.014],[99.917,24.834],[100.3,24.721],[100.487,24.526],[100.476,24.164],[100.139,23.473],[100.171,23.107],[100.984,21.845],[101.18,21.437],[100.329,20.786],[100.116,20.418],[100.549,20.109],[100.597,19.893],[101.115,19.852],[101.472,19.87],[102.185,20.049],[101.884,19.555],[101.765,18.722],[101.492,18.16],[101.564,17.821],[102.114,18.109],[102.413,17.933],[102.999,17.962],[103.2,18.31],[103.956,18.241],[104.717,17.429],[104.779,16.442],[105.589,15.57],[105.576,15.325],[105.782,15.121],[105.891,14.771],[105.87,14.218],[105.965,13.857],[105.949,13.35],[105.972,12.66],[105.93,12.397],[105.651,12.234],[105.368,11.97],[105.05,11.805],[104.951,11.591],[105.113,10.933],[105.208,10.707],[105.567,10.267],[106.361,9.434]]}},{"type":"Feature","properties":{"name":"Ob"},"geometry":{"type":"LineString","coordinates":[[90.325,47.65],[90.201,47.408],[89.733,47.162],[89.397,47.069],[89.048,47.087],[86.944,47.66],[86.4,47.857],[85.267,47.994],[84.357,47.732],[83.836,48.036],[83.62,48.194],[83.492,48.779],[83.868,49.025],[83.883,49.346],[83.364,49.644],[82.485,50.06],[82.14,50.182],[81.781,50.252],[80.428,50.385],[78.545,50.767],[77.243,51.869],[76.999,52.13],[76.606,52.693],[76.328,52.902],[75.59,53.296],[75.309,53.496],[75.118,53.688],[74.994,53.986],[74.52,54.375],[74.124,54.535],[73.851,54.644],[73.633,54.741],[73.376,54.877],[73.082,55.23],[73.334,55.446],[73.655,55.585],[74.241,55.761],[74.472,55.875],[74.71,56.203],[74.63,56.644],[74.478,56.859],[74.28,57.028],[73.69,57.255],[72.901,57.446],[71.474,57.659],[70.289,57.946],[68.84,58.034],[68.385,58.133],[68.268,58.332],[68.504,58.527],[68.601,58.746],[68.793,58.984],[68.968,59.405],[69.334,59.65],[69.783,59.873],[69.768,60.107],[69.804,60.515],[69.497,60.813],[69.179,60.969],[68.96,61.076],[68.408,61.207],[68.226,61.448],[67.645,61.73],[67.233,62.068],[66.281,62.447],[65.689,62.662],[65.41,62.847],[65.303,63.075],[65.427,63.307],[65.689,63.587],[65.833,64.015],[65.926,64.224],[65.582,64.707],[65.511,64.966],[65.368,65.167],[65.766,65.803],[65.839,66.157],[66.341,66.443],[66.677,66.567],[67.033,66.605],[68.193,66.576],[69.013,66.788],[69.93,66.747],[70.84,66.653],[71.47,66.663]]}},{"type":"Feature","properties":{"name":"Lena"},"geometry":{"type":"LineString","coordinates":[[107.98,54.004],[107.783,54.294],[107.182,53.921],[106.927,53.884],[106.107,53.885],[105.665,54.022],[105.288,54.385],[105.155,54.881],[105.723,55.845],[105.786,56.229],[106.246,56.485],[105.982,56.651],[106.011,56.897],[106.325,57.01],[106.807,57.111],[107.033,57.271],[107.393,57.301],[107.697,57.438],[108.082,57.76],[108.609,58.045],[108.925,58.165],[109.486,58.283],[110.009,58.563],[111.101,58.783],[111.834,59.143],[112.35,59.301],[112.643,59.545],[113.511,59.928],[114.431,60.493],[114.944,60.732],[115.472,60.745],[116.152,60.607],[116.862,60.355],[117.468,60.013],[117.802,59.88],[118.317,59.801],[118.66,59.877],[119.363,60.164],[119.816,60.249],[120.197,60.32],[120.516,60.379],[120.794,60.453],[121.055,60.541],[123.551,60.592],[124.995,60.758],[126.324,61.056],[128.476,61.289],[129.216,61.499],[129.743,61.909],[129.92,62.145],[129.956,62.415],[129.857,62.712],[129.38,63.49],[128.301,63.6],[127.955,63.716],[126.853,64.224],[125.509,64.68],[124.797,65.018],[124.526,65.237],[124.18,65.856],[123.697,66.503],[123.234,67.36],[123.146,67.649],[123.183,67.889],[123.743,68.411],[124.076,68.975],[124.324,69.183],[124.622,69.336],[125.071,69.776],[125.485,69.974]]}},{"type":"Feature","properties":{"name":"Chang"},"geometry":{"type":"LineString","coordinates":[[90.795,34.3],[91.152,34.321],[92.993,34.1],[93.838,34.321],[94.156,34.556],[94.389,34.654],[94.682,34.675],[95.004,34.602],[95.375,34.407],[96.004,33.884],[96.41,33.681],[97.033,33.237],[97.45,32.781],[98.162,32.287],[98.375,32.01],[98.542,31.69],[98.774,31.36],[98.699,31.151],[98.909,30.676],[98.984,30.343],[99.096,29.25],[99.232,28.433],[99.355,28.205],[99.514,27.786],[99.593,27.556],[99.798,27.165],[100.14,27.246],[100.246,27.496],[100.47,27.569],[100.441,26.799],[100.453,26.376],[100.615,26.215],[101.002,26.258],[101.663,26.53],[101.886,26.41],[101.997,26.104],[102.443,26.277],[102.756,26.313],[102.981,26.592],[102.958,27.224],[103.147,27.434],[103.471,27.885],[103.544,28.146],[103.79,28.332],[103.851,28.668],[104.326,28.667],[104.741,28.777],[105.113,28.767],[105.547,28.88],[105.82,28.877],[106.614,29.549],[107.604,29.924],[107.89,30.141],[108.308,30.58],[108.576,30.86],[108.864,30.937],[109.46,31.01],[110.256,31.023],[110.828,30.922],[111.215,30.729],[111.534,30.38],[112.033,30.352],[112.44,29.818],[112.782,29.744],[112.957,29.551],[113.658,29.894],[113.935,30.064],[114.051,30.302],[114.303,30.593],[114.544,30.595],[114.788,30.518],[115.39,30.013],[115.679,29.856],[115.976,29.805],[116.263,29.839],[116.695,30.05],[116.954,30.408],[117.327,30.695],[117.599,30.815],[117.877,31.105],[118.273,31.382],[118.55,31.821],[118.738,32.022],[119.004,32.151],[119.332,32.205],[119.746,32.137],[120.577,31.614],[120.921,31.516],[121.858,31.415]]}}]}